MTG-S1                  
1 64723U 25143A   25211.90495933 -.00000026  00000+0  00000+0 0  9997
2 64723   0.9748 304.3448 0000173  61.6953 265.0189  1.00272859   194
STARLINK-34393          
1 64724U 25144A   25211.91668981  .00008407  00000+0  22005-3 0  9998
2 64724  53.1607 132.8567 0001028  97.4428 256.9552 15.39602564  5824
STARLINK-34562          
1 64725U 25144B   25211.91668981  .00008273  00000+0  21668-3 0  9994
2 64725  53.1592 133.0141 0000904  89.2398 186.0371 15.39604335  5804
STARLINK-34557          
1 64726U 25144C   25211.91668981  .00007771  00000+0  20413-3 0  9994
2 64726  53.1591 133.0104 0001027  87.8555 189.2875 15.39608460  5828
STARLINK-34242          
1 64727U 25144D   25211.91668981 -.01652278  00000+0 -38277-1 0  9991
2 64727  53.1612 132.7340 0000865  82.6852 333.2943 15.45200132  5731
STARLINK-34239          
1 64728U 25144E   25211.19518515  .00054906  00000+0  98823-3 0  9995
2 64728  53.1610 136.1612 0001306  90.0193 270.0966 15.49312055  5625
STARLINK-34588          
1 64729U 25144F   25211.91668981  .00006287  00000+0  16710-3 0  9993
2 64729  53.1595 132.9620 0001107  95.4246 205.6095 15.39604387  5828
STARLINK-34606          
1 64730U 25144G   25211.91668981  .00006348  00000+0  16863-3 0  9992
2 64730  53.1596 132.9577 0001182  87.2536 215.6418 15.39605867  5820
STARLINK-34552          
1 64731U 25144H   25211.19415276  .00075807  00000+0  13576-2 0  9993
2 64731  53.1603 136.1548 0001299  93.8494 266.2663 15.49314527  5622
STARLINK-34596          
1 64732U 25144J   25211.91668981  .00006431  00000+0  17075-3 0  9993
2 64732  53.1609 132.8044 0001421  98.5595 281.5718 15.39598644  5820
STARLINK-34556          
1 64733U 25144K   25211.91668981 -.01825262  00000+0 -47588-1 0  9998
2 64733  53.1610 132.7556 0001553  75.0436 329.2307 15.41514512  5739
STARLINK-34591          
1 64734U 25144L   25211.91668981  .00004407  00000+0  12014-3 0  9994
2 64734  53.1598 132.9059 0000714  78.8234 249.8325 15.39606187  5802
STARLINK-34587          
1 64735U 25144M   25211.91668981 -.01631093  00000+0 -36384-1 0  9999
2 64735  53.1604 132.6934 0000767  94.7637 340.4343 15.46250360  5671
STARLINK-34130          
1 64736U 25144N   25211.51498284  .00080018  00000+0  14298-2 0  9996
2 64736  53.1609 134.6006 0001603  85.7256 274.3937 15.49354064  5679
STARLINK-34619          
1 64737U 25144P   25211.51463617  .00097210  00000+0  17327-2 0  9997
2 64737  53.1611 134.5992 0001434  72.9223 287.1943 15.49333757  5675
STARLINK-34597          
1 64738U 25144Q   25211.91668981  .00012376  00000+0  31870-3 0  9993
2 64738  53.1603 132.8500 0000676 124.0524 232.0431 15.39636629  5802
STARLINK-34471          
1 64739U 25144R   25211.19154285 -.00408062  00000+0 -78597-2 0  9990
2 64739  53.1603 136.1321 0003382  79.6017 280.5373 15.48782095  5565
STARLINK-34208          
1 64740U 25144S   25211.90816080 -.00332992  00000+0 -83988-2 0  9997
2 64740  53.1604 132.7872 0000981  62.9969 297.1137 15.40626972  5738
STARLINK-34205          
1 64741U 25144T   25211.91668981  .00015078  00000+0  38645-3 0  9996
2 64741  53.1607 132.7981 0001526  83.7857 298.0832 15.39598209  5827
STARLINK-34607          
1 64742U 25144U   25210.09376671 -.00138014  00000+0 -25415-2 0  9995
2 64742  53.1602 141.3710 0000747  65.9130 294.1957 15.49040065  5434
STARLINK-34236          
1 64743U 25144V   25211.83532201  .00089515  00000+0  16573-2 0  9996
2 64743  53.1604 133.0435 0003679 215.7979 144.2784 15.48283523  5724
STARLINK-34185          
1 64744U 25144W   25211.51223770  .00085868  00000+0  15341-2 0  9999
2 64744  53.1608 134.5807 0003071  84.5106 275.6253 15.49323808  5674
STARLINK-34581          
1 64745U 25144X   25211.51188983  .00067634  00000+0  12129-2 0  9998
2 64745  53.1606 134.5791 0002066  83.9493 276.1751 15.49324816  5679
STARLINK-34592          
1 64746U 25144Y   25211.51154017  .00039824  00000+0  71949-3 0  9996
2 64746  53.1611 134.5771 0000990  89.8231 270.2891 15.49346972  5670
STARLINK-34589          
1 64747U 25144Z   25211.49517977  .00075433  00000+0  11528-2 0  9994
2 64747  53.1602 134.4714 0001174  91.9515 268.1631 15.53760105  5672
STARLINK-34536          
1 64748U 25144AA  25211.96241096  .00101328  00000+0  18031-2 0  9992
2 64748  53.1608 132.4127 0001252 104.0688 256.0460 15.49361044  5747
STARLINK-34595          
1 64749U 25144AB  25211.96172454  .00073707  00000+0  13191-2 0  9995
2 64749  53.1601 132.4101 0001016  92.8558 267.2567 15.49346286  5744
STARLINK-34531          
1 64750U 25144AC  25211.91668981  .00003986  00000+0  10962-3 0  9993
2 64750  53.1596 132.9062 0001032  88.9017 237.8954 15.39603907  5821
PROGRESS-MS 31          
1 64751U 25146A   25211.84034139  .00011760  00000+0  21201-3 0  9997
2 64751  51.6343  90.7097 0001872 133.9753 226.1391 15.50230234  3954
SHIYAN-28B 01           
1 64753U 25145A   25211.88766672  .00000524  00000+0  35884-4 0  9995
2 64753  10.9984 260.2594 0002968  24.7311 335.3059 14.29202704  3876
CZ-4C R/B               
1 64754U 25145B   25211.71644087  .00001001  00000+0  90376-4 0  9991
2 64754  10.9851 253.2821 0122034 358.3104   1.6713 14.56367888  3873
STARLINK-33965          
1 64755U 25147A   25211.91668981 -.01593862  00000+0 -34335-1 0  9999
2 64755  53.1599 196.6175 0000680  94.0168 297.7438 15.47177030  4849
STARLINK-34371          
1 64756U 25147B   25211.91668981  .00090038  00000+0  16106-2 0  9991
2 64756  53.1602 196.6094 0000804  95.3505 300.6019 15.49269191  4753
STARLINK-34401          
1 64757U 25147C   25211.91668981  .00091682  00000+0  16408-2 0  9993
2 64757  53.1602 196.6053 0001274  98.4131 299.5228 15.49246720  4694
STARLINK-34593          
1 64758U 25147D   25211.91668981  .00090275  00000+0  16161-2 0  9997
2 64758  53.1602 196.6010 0001243  97.8918 301.9629 15.49245535  4809
STARLINK-34598          
1 64759U 25147E   25211.91668981  .00095096  00000+0  17032-2 0  9992
2 64759  53.1602 196.5969 0001185 104.2333 297.5135 15.49207490  4698
STARLINK-34235          
1 64760U 25147F   25211.91668981 -.01585024  00000+0 -32213-1 0  9999
2 64760  53.1601 196.5935 0001137  93.8666 309.6701 15.48811890  4789
STARLINK-34635          
1 64761U 25147G   25211.91668981  .00087891  00000+0  15740-2 0  9993
2 64761  53.1602 196.5890 0001152  98.8186 306.7876 15.49247534  4803
STARLINK-34638          
1 64762U 25147H   25211.91668981  .00088142  00000+0  15785-2 0  9993
2 64762  53.1602 196.5855 0001145  97.5638 309.9623 15.49246120  4800
STARLINK-34534          
1 64763U 25147J   25211.91668981  .00087423  00000+0  15657-2 0  9993
2 64763  53.1602 196.5809 0001215 100.6658 308.7702 15.49248594  4808
STARLINK-34261          
1 64764U 25147K   25211.91668981  .00088494  00000+0  15845-2 0  9992
2 64764  53.1602 196.5770 0001156  98.5517 312.7973 15.49249968  4844
STARLINK-34566          
1 64765U 25147L   25211.91668981  .00090954  00000+0  16281-2 0  9992
2 64765  53.1602 196.5732 0001241  95.6784 317.5944 15.49244801  4800
STARLINK-34645          
1 64766U 25147M   25211.91668981  .00087622  00000+0  15692-2 0  9996
2 64766  53.1601 196.5690 0001246  98.9053 316.2837 15.49248601  4802
STARLINK-34639          
1 64767U 25147N   25211.91668981  .00089170  00000+0  15966-2 0  9991
2 64767  53.1601 196.5649 0001231  98.2217 318.8817 15.49246430  4754
STARLINK-34609          
1 64768U 25147P   25211.91668981  .00090627  00000+0  16224-2 0  9999
2 64768  53.1602 196.5613 0001227  96.1865 322.8406 15.49243691  4809
STARLINK-34246          
1 64769U 25147Q   25211.91668981 -.01265095  00000+0 -24812-1 0  9997
2 64769  53.1600 196.5579 0000870  82.8218 338.0480 15.49630030  4747
STARLINK-34618          
1 64770U 25147R   25211.91668981 -.01571959  00000+0 -33962-1 0  9994
2 64770  53.1601 196.5582 0000827  84.6988 335.5549 15.47048918  4698
STARLINK-34541          
1 64771U 25147S   25211.91668981  .00092322  00000+0  16520-2 0  9996
2 64771  53.1603 196.5486 0001206  98.5218 326.2487 15.49247650  4690
STARLINK-34652          
1 64772U 25147T   25211.91668981  .00089307  00000+0  15990-2 0  9996
2 64772  53.1602 196.5450 0001227  99.7244 326.9653 15.49246624  4801
STARLINK-34612          
1 64773U 25147U   25211.91668981  .00017911  00000+0  32942-3 0  9996
2 64773  53.1602 196.5408 0001277 100.3424 328.2382 15.49303709  4801
STARLINK-34621          
1 64774U 25147V   25211.91668981  .00088865  00000+0  15913-2 0  9991
2 64774  53.1603 196.5365 0001165  99.0961 331.4312 15.49245137  4709
STARLINK-34657          
1 64775U 25147W   25211.91668981  .00086777  00000+0  15543-2 0  9991
2 64775  53.1603 196.5326 0001205  99.6161 332.8218 15.49249051  4800
STARLINK-34637          
1 64776U 25147X   25211.91668981  .00087835  00000+0  15731-2 0  9997
2 64776  53.1603 196.5284 0001209  99.3727 334.9871 15.49246071  4709
STARLINK-34547          
1 64777U 25147Y   25211.91668981  .00089352  00000+0  15998-2 0  9999
2 64777  53.1603 196.5247 0001089  99.1136 337.1633 15.49246501  4751
STARLINK-34537          
1 64778U 25147Z   25211.96724602  .00540439  00000+0  28282-2 0  9996
2 64778  53.1545 194.8111 0003417 138.7178 221.4103 15.78798702  4812
STARLINK-34585          
1 64779U 25147AA  25211.91668981  .00087053  00000+0  15593-2 0  9998
2 64779  53.1603 196.5162 0001190  97.8404 342.2695 15.49246357  4759
STARLINK-34491          
1 64780U 25147AB  25211.91668981  .00086304  00000+0  15461-2 0  9992
2 64780  53.1603 196.5128 0001176  99.0743 342.9534 15.49246440  4805
STARLINK-34582          
1 64781U 25147AC  25211.91668981  .00087343  00000+0  15644-2 0  9990
2 64781  53.1604 196.5086 0001160  93.6481 350.2903 15.49246555  4700
STARLINK-34482          
1 64782U 25147AD  25211.91668981  .00086166  00000+0  15437-2 0  9993
2 64782  53.1604 196.5042 0001177  98.4284 347.4324 15.49246058  4843
